$$SOE
2461302.500000000, A.D. 2026-Sep-19 00:00:00.0000, -2.880825889632631E+08, -1.080294940402699E+08, -8.615359126790121E+06,
2461309.500000000, A.D. 2026-Sep-26 00:00:00.0000, -2.823804646468521E+08, -1.200792674347332E+08, -9.396664841476783E+06,
2461316.500000000, A.D. 2026-Oct-03 00:00:00.0000, -2.762046563861142E+08, -1.319275600158299E+08, -1.016220418030284E+07,
2461323.500000000, A.D. 2026-Oct-10 00:00:00.0000, -2.695621961520720E+08, -1.435529133197854E+08, -1.091057060346249E+07,
2461330.500000000, A.D. 2026-Oct-17 00:00:00.0000, -2.624613282757815E+08, -1.549341066350002E+08, -1.164037930582722E+07,
2461337.500000000, A.D. 2026-Oct-24 00:00:00.0000, -2.549115051548060E+08, -1.660502440548944E+08, -1.235027303673781E+07,
2461344.500000000, A.D. 2026-Oct-31 00:00:00.0000, -2.469233750099461E+08, -1.768808422947519E+08, -1.303892794483753E+07,
2461351.500000000, A.D. 2026-Nov-07 00:00:00.0000, -2.385087611909713E+08, -1.874059183422568E+08, -1.370505941453993E+07,
2461358.500000000, A.D. 2026-Nov-14 00:00:00.0000, -2.296806327780645E+08, -1.976060751666945E+08, -1.434742777991857E+07,
2461365.500000000, A.D. 2026-Nov-21 00:00:00.0000, -2.204530683523827E+08, -2.074625839019605E+08, -1.496484363346387E+07,
2461372.500000000, A.D. 2026-Nov-28 00:00:00.0000, -2.108412141138512E+08, -2.169574646135499E+08, -1.555617282448779E+07,
2461379.500000000, A.D. 2026-Dec-05 00:00:00.0000, -2.008612330299765E+08, -2.260735654326228E+08, -1.612034147579043E+07,
2461386.500000000, A.D. 2026-Dec-12 00:00:00.0000, -1.905302452723071E+08, -2.347946361098753E+08, -1.665634072521603E+07,
2461393.500000000, A.D. 2026-Dec-19 00:00:00.0000, -1.798662623567120E+08, -2.431053951982469E+08, -1.716323096776325E+07,
2461400.500000000, A.D. 2026-Dec-26 00:00:00.0000, -1.688881157563254E+08, -2.509915910181733E+08, -1.764014561045784E+07,
2461407.500000000, A.D. 2027-Jan-02 00:00:00.0000, -1.576153804243196E+08, -2.584400559709204E+08, -1.808629434202366E+07,
2461414.500000000, A.D. 2027-Jan-09 00:00:00.0000, -1.460682938991926E+08, -2.654387536590298E+08, -1.850096589556292E+07,
2461421.500000000, A.D. 2027-Jan-16 00:00:00.0000, -1.342676718103733E+08, -2.719768183954814E+08, -1.888353028367521E+07,
2461428.500000000, A.D. 2027-Jan-23 00:00:00.0000, -1.222348206343583E+08, -2.780445868456105E+08, -1.923344049786314E+07,
2461435.500000000, A.D. 2027-Jan-30 00:00:00.0000, -1.099914484317778E+08, -2.836336216724195E+08, -1.955023368569016E+07,
2461442.500000000, A.D. 2027-Feb-06 00:00:00.0000, -9.755957406265245E+07, -2.887367267892134E+08, -1.983353181748849E+07,
2461449.500000000, A.D. 2027-Feb-13 00:00:00.0000, -8.496143624891663E+07, -2.933479530623899E+08, -2.008304170937255E+07,
2461456.500000000, A.D. 2027-Feb-20 00:00:00.0000, -7.221940572573835E+07, -2.974625954301091E+08, -2.029855426665427E+07,
2461463.500000000, A.D. 2027-Feb-27 00:00:00.0000, -5.935589991688556E+07, -3.010771849332684E+08, -2.047994336200292E+07,
2461470.500000000, A.D. 2027-Mar-06 00:00:00.0000, -4.639329789152628E+07, -3.041894741195203E+08, -2.062716449810210E+07,
2461477.500000000, A.D. 2027-Mar-13 00:00:00.0000, -3.335385791231592E+07, -3.067984142350388E+08, -2.074025297485034E+07,
2461484.500000000, A.D. 2027-Mar-20 00:00:00.0000, -2.025963933526315E+07, -3.089041255640761E+08, -2.081932156274749E+07,
2461491.500000000, A.D. 2027-Mar-27 00:00:00.0000, -7.132429200523351E+06, -3.105078620380229E+08, -2.086455778506353E+07,
2461498.500000000, A.D. 2027-Apr-03 00:00:00.0000, 6.006326246688972E+06, -3.116119707737086E+08, -2.087622087346132E+07,
2461505.500000000, A.D. 2027-Apr-10 00:00:00.0000, 1.913558482461156E+07, -3.122198471667486E+08, -2.085463844710071E+07,
2461512.500000000, A.D. 2027-Apr-17 00:00:00.0000, 3.223476624395866E+07, -3.123358862338644E+08, -2.080020296788640E+07,
2461519.500000000, A.D. 2027-Apr-24 00:00:00.0000, 4.528380440415776E+07, -3.119654309569960E+08, -2.071336803333725E+07,
2461526.500000000, A.D. 2027-May-01 00:00:00.0000, 5.826319435887004E+07, -3.111147182771487E+08, -2.059464457818958E+07,
2461533.500000000, A.D. 2027-May-08 00:00:00.0000, 7.115403423785082E+07, -3.097908226343210E+08, -2.044459699410716E+07,
2461540.500000000, A.D. 2027-May-15 00:00:00.0000, 8.393806068270278E+07, -3.080015967079915E+08, -2.026383899176376E+07,
2461547.500000000, A.D. 2027-May-22 00:00:00.0000, 9.659767635449901E+07, -3.057556125168413E+08, -2.005302931063339E+07,
2461554.500000000, A.D. 2027-May-29 00:00:00.0000, 1.091159730503695E+08, -3.030621048723204E+08, -1.981286773878548E+07,
2461561.500000000, A.D. 2027-Jun-05 00:00:00.0000, 1.214767515430942E+08, -2.999309145400953E+08, -1.954409129947282E+07,
2461568.500000000, A.D. 2027-Jun-12 00:00:00.0000, 1.336645364022458E+08, -2.963724311156443E+08, -1.924747041312137E+07,
2461575.500000000, A.D. 2027-Jun-19 00:00:00.0000, 1.456645857614664E+08, -2.923975369352388E+08, -1.892380510516497E+07,
2461582.500000000, A.D. 2027-Jun-26 00:00:00.0000, 1.574628966292810E+08, -2.880175526189077E+08, -1.857392132756053E+07,
2461589.500000000, A.D. 2027-Jul-03 00:00:00.0000, 1.690462062079337E+08, -2.832441845227033E+08, -1.819866742276521E+07,
2461596.500000000, A.D. 2027-Jul-10 00:00:00.0000, 1.804019895961230E+08, -2.780894743279703E+08, -1.779891074677332E+07,
2461603.500000000, A.D. 2027-Jul-17 00:00:00.0000, 1.915184542523546E+08, -2.725657509942443E+08, -1.737553446845129E+07,
2461610.500000000, A.D. 2027-Jul-24 00:00:00.0000, 2.023845317145424E+08, -2.666855852815492E+08, -1.692943457236724E+07,
2461617.500000000, A.D. 2027-Jul-31 00:00:00.0000, 2.129898673213651E+08, -2.604617467115263E+08, -1.646151708835863E+07,
2461624.500000000, A.D. 2027-Aug-07 00:00:00.0000, 2.233248080571170E+08, -2.539071618857387E+08, -1.597269543744513E+07,
2461631.500000000, A.D. 2027-Aug-14 00:00:00.0000, 2.333803865259996E+08, -2.470348744488914E+08, -1.546388770400922E+07,
2461638.500000000, A.D. 2027-Aug-21 00:00:00.0000, 2.431483019662294E+08, -2.398580100619821E+08, -1.493601416497120E+07,
2461645.500000000, A.D. 2027-Aug-28 00:00:00.0000, 2.526209020145512E+08, -2.323897451591370E+08, -1.438999529045810E+07,
2461652.500000000, A.D. 2027-Sep-04 00:00:00.0000, 2.617911643033979E+08, -2.246432769475226E+08, -1.382674990021138E+07,
2461659.500000000, A.D. 2027-Sep-11 00:00:00.0000, 2.706526767369004E+08, -2.166317952577761E+08, -1.324719339763300E+07,
2461666.500000000, A.D. 2027-Sep-18 00:00:00.0000, 2.791996167976424E+08, -2.083684568250400E+08, -1.265223614141409E+07,
2461673.500000000, A.D. 2027-Sep-25 00:00:00.0000, 2.874267303104061E+08, -1.998663619940385E+08, -1.204278197561879E+07,
2461680.500000000, A.D. 2027-Oct-02 00:00:00.0000, 2.953293099154615E+08, -1.911385337253623E+08, -1.141972691560979E+07,
2461687.500000000, A.D. 2027-Oct-09 00:00:00.0000, 3.029031734322752E+08, -1.821978988041728E+08, -1.078395798452801E+07,
2461694.500000000, A.D. 2027-Oct-16 00:00:00.0000, 3.101446423160696E+08, -1.730572711968426E+08, -1.013635220272317E+07,
2461701.500000000, A.D. 2027-Oct-23 00:00:00.0000, 3.170505205887070E+08, -1.637293374461651E+08, -9.477775746540748E+06,
2461708.500000000, A.D. 2027-Oct-30 00:00:00.0000, 3.236180747279075E+08, -1.542266433769532E+08, -8.809083252842695E+06,
2461715.500000000, A.D. 2027-Nov-06 00:00:00.0000, 3.298450134503853E+08, -1.445615808702870E+08, -8.131117062020019E+06,
2461722.500000000, A.D. 2027-Nov-13 00:00:00.0000, 3.357294654855543E+08, -1.347463766735056E+08, -7.444706379075631E+06,
2461729.500000000, A.D. 2027-Nov-20 00:00:00.0000, 3.412699583056387E+08, -1.247930853208021E+08, -6.750666790022932E+06,
2461736.500000000, A.D. 2027-Nov-27 00:00:00.0000, 3.464653994843615E+08, -1.147135830893760E+08, -6.049800032181881E+06,
2461743.500000000, A.D. 2027-Dec-04 00:00:00.0000, 3.513150587080595E+08, -1.045195619729355E+08, -5.342893750634767E+06,
2461750.500000000, A.D. 2027-Dec-11 00:00:00.0000, 3.558185499253775E+08, -9.422252453845650E+07, -4.630721261971973E+06,
2461757.500000000, A.D. 2027-Dec-18 00:00:00.0000, 3.599758139355426E+08, -8.383377991176552E+07, -3.914041371548995E+06,
2461764.500000000, A.D. 2027-Dec-25 00:00:00.0000, 3.637871015816223E+08, -7.336444080350825E+07, -3.193598252227709E+06,
2461771.500000000, A.D. 2028-Jan-01 00:00:00.0000, 3.672529575973693E+08, -6.282542147180302E+07, -2.470121381611548E+06,
$$EOE